{"type": "FeatureCollection", "name": "apia_ipa_2025_holding_marculesti", "crs": {"type": "name", "properties": {"name": "EPSG:4326"}}, "features": [{"type": "Feature", "id": "P1", "properties": {"gid": "286424411", "judet": "IL", "judet_name": "Ialomița", "siruta": 179980, "uat": "Mărculești", "cat_use": "PP", "land_use": "PP", "area_ha": 163.44, "source": "APIA IPA 2025 declared parcels (cerere unică)", "plot_id": "P1"}, "geometry": {"type": "Polygon", "coordinates": [[[27.51847241829244, 44.56114892092681], [27.518664629876014, 44.56130859985199], [27.518900176806824, 44.56151193356772], [27.519067751672683, 44.56162155254537], [27.51950827717071, 44.5619832244448], [27.519847674153482, 44.56220069108959], [27.52017026733776, 44.56237706874324], [27.520427705979927, 44.562520181100375], [27.52067301824614, 44.56278961136588], [27.520943013823207, 44.56313705947], [27.52106756500907, 44.56328510437433], [27.521205207030736, 44.563255182002344], [27.521308402366692, 44.563467664148526], [27.521369483131235, 44.563576375724026], [27.521455652279403, 44.56369268204673], [27.521560061526667, 44.56373145036188], [27.52162079616156, 44.563746205655455], [27.521704165321182, 44.56376312824921], [27.52183125351663, 44.56374954594409], [27.521959176137894, 44.563754741210154], [27.522368363249353, 44.56375096102658], [27.52281892848229, 44.563748927025564], [27.52290218748716, 44.563935009666935], [27.522937262167677, 44.56413558371389], [27.522963652675344, 44.564309507836604], [27.523011396589204, 44.56454202586215], [27.523660120513963, 44.564423324473125], [27.52489083477718, 44.564240796491795], [27.527439525070236, 44.56385671166566], [27.52890453559238, 44.5636399358383], [27.52986238180595, 44.56353669706318], [27.531393785836045, 44.56336779335321], [27.53397917208849, 44.56311556199593], [27.535905968621726, 44.56294621566028], [27.53664434104486, 44.56289043574398], [27.53876802949717, 44.56270298964023], [27.540339272361106, 44.56257392732405], [27.541784676104655, 44.56245449496317], [27.54236144208278, 44.56240743424315], [27.543536305373223, 44.562311112228095], [27.544606605687456, 44.56222054095155], [27.545235044594236, 44.56215696846522], [27.546106434071465, 44.56209300986198], [27.54632713721835, 44.5620744047948], [27.546328132941635, 44.56198923105087], [27.54629208112128, 44.56171421975119], [27.546271716624528, 44.56148931112287], [27.54623502991823, 44.561130675271116], [27.546209513228188, 44.56084814328531], [27.546134057659557, 44.56076447122434], [27.54580595972693, 44.56064838069761], [27.545660872062907, 44.56050935126632], [27.54539000171736, 44.56041344636036], [27.54531686755352, 44.560202989253575], [27.54527303599275, 44.55997576568765], [27.54537645449149, 44.55976669653264], [27.545407492916645, 44.55944918345429], [27.545457489922033, 44.55930575773798], [27.54508132073443, 44.55849541116619], [27.54529987554647, 44.55815655320929], [27.545679684178527, 44.557943911995544], [27.54567817925565, 44.55732247619443], [27.545772986276276, 44.55653190367665], [27.54607852993119, 44.55607410760373], [27.54606858291146, 44.55595069690842], [27.544785387916985, 44.556009405916576], [27.544091094003367, 44.555980894719646], [27.54327184603945, 44.55601238898297], [27.542636984696475, 44.556042212082644], [27.541774781366897, 44.55610977262302], [27.541257930240878, 44.55614022177224], [27.54008084086543, 44.5561855475049], [27.53973642550394, 44.55620941242867], [27.539481333413242, 44.55621515930044], [27.538972664898157, 44.556175611132], [27.538502731253672, 44.55618650952905], [27.538059968642834, 44.55623517026771], [27.537811768960132, 44.55624218951262], [27.53753660028996, 44.5562283272246], [27.53661654932996, 44.55622467427001], [27.5364491633635, 44.556221022925016], [27.536185166514006, 44.55625874017662], [27.53605028278565, 44.55629042848576], [27.535932402960817, 44.55629881471737], [27.535602518771963, 44.55632649006271], [27.53519583685054, 44.55630073562111], [27.535057529698573, 44.55627407597881], [27.534949640476935, 44.55626515049028], [27.534773278478802, 44.556236042466516], [27.53465327263097, 44.556225003584395], [27.534495097410073, 44.556218648651424], [27.533933840264698, 44.556241177445614], [27.533346042066004, 44.556429104321154], [27.532420258417282, 44.556449905621726], [27.530736501677215, 44.55656133835658], [27.52958311785834, 44.556557777957465], [27.52923337676029, 44.55656562544179], [27.52849080896151, 44.55653811112542], [27.52765053867977, 44.556630575233484], [27.52665915984101, 44.556564455082835], [27.526690792269655, 44.556238126505505], [27.513511369789803, 44.5584658354884], [27.514559270177323, 44.55967396008664], [27.515123773477395, 44.55986026907518], [27.51512460332546, 44.55985966542536], [27.5166235182044, 44.558774329036275], [27.51732156770803, 44.558324662920036], [27.518006658513865, 44.55854023010338], [27.51826964577371, 44.55862298118592], [27.519295814047062, 44.55898935769828], [27.51934305262045, 44.55912523282745], [27.51927458757116, 44.559277115802765], [27.518315474969523, 44.560015399894276], [27.51721804998508, 44.56073269244153], [27.517400726078872, 44.560753765166886], [27.517581313265705, 44.56078149178095], [27.517800328642775, 44.56084551147946], [27.51801740361103, 44.56092447255812], [27.518250271657028, 44.56102424435515], [27.51847241829244, 44.56114892092681]], [[27.53296284904807, 44.562591189851524], [27.532941971110212, 44.56254333557592], [27.533000017394002, 44.562531840969726], [27.533012845041917, 44.56257530303997], [27.53296284904807, 44.562591189851524]], [[27.533394361633114, 44.56239915574315], [27.53330073506965, 44.56240529264992], [27.533295242860632, 44.56231187505925], [27.533388642093968, 44.56231202674247], [27.533394361633114, 44.56239915574315]], [[27.539873223819455, 44.56035942593232], [27.539975407563553, 44.560377261434034], [27.539941089490732, 44.56048365662959], [27.539837272750702, 44.56048105347903], [27.539873223819455, 44.56035942593232]], [[27.540176765901798, 44.56048405377346], [27.54017670051199, 44.56061024709684], [27.54010489678903, 44.56061777941096], [27.54011721275015, 44.560496135197944], [27.540176765901798, 44.56048405377346]], [[27.52902755823518, 44.56272676564326], [27.529052745878865, 44.56261612278816], [27.529168591744668, 44.562621040647365], [27.529144325562577, 44.562734885614105], [27.52902755823518, 44.56272676564326]], [[27.524202571720686, 44.56308291995933], [27.524402932040047, 44.56302742770423], [27.524465558314784, 44.56317100420477], [27.524249237947924, 44.56320538391313], [27.524202571720686, 44.56308291995933]], [[27.538474677237865, 44.561816638505626], [27.538333519763867, 44.56180907738468], [27.538351890102998, 44.561733027884294], [27.538483969145965, 44.561729162656285], [27.538474677237865, 44.561816638505626]], [[27.533275534998005, 44.562570741721345], [27.533223121584914, 44.56257460212903], [27.533201294150203, 44.56245847016647], [27.53325733137879, 44.562455698612446], [27.533275534998005, 44.562570741721345]], [[27.53800481300238, 44.56176412176211], [27.537957284019246, 44.561793377441866], [27.537868888453385, 44.56172527689118], [27.537930396375987, 44.561694644295955], [27.53800481300238, 44.56176412176211]]]}}, {"type": "Feature", "id": "P2", "properties": {"gid": "195663873", "judet": "IL", "judet_name": "Ialomița", "siruta": 179980, "uat": "Mărculești", "cat_use": "TA", "land_use": "TA", "area_ha": 1.5, "source": "APIA IPA 2025 declared parcels (cerere unică)", "plot_id": "P2"}, "geometry": {"type": "Polygon", "coordinates": [[[27.53614166055846, 44.55139358034398], [27.536127599465686, 44.55139403997433], [27.536127460629043, 44.55139404216099], [27.535850032522045, 44.551402111008656], [27.536004572287126, 44.55628768493765], [27.536185166514006, 44.55625874017662], [27.536375920164854, 44.55622891838583], [27.53617314477734, 44.551392555211564], [27.536158725451244, 44.55139302366589], [27.53614166055846, 44.55139358034398]]]}}, {"type": "Feature", "id": "P3", "properties": {"gid": "687179926", "judet": "IL", "judet_name": "Ialomița", "siruta": 179980, "uat": "Mărculești", "cat_use": "TA", "land_use": "TA", "area_ha": 3.42, "source": "APIA IPA 2025 declared parcels (cerere unică)", "plot_id": "P3"}, "geometry": {"type": "Polygon", "coordinates": [[[27.542307500623437, 44.556068030595945], [27.542360311424805, 44.55606389091105], [27.54247921912875, 44.556054574543246], [27.542553585013128, 44.55604874727818], [27.54259108380412, 44.5560440035715], [27.542360198999052, 44.551291144239144], [27.5421884268146, 44.55129220149496], [27.542151590122852, 44.55129359128027], [27.542134030904283, 44.55129425554071], [27.54208912416303, 44.5512959524307], [27.542083581366295, 44.55129615844874], [27.542077083526404, 44.55129640400835], [27.54207707094961, 44.55129640429198], [27.541990424429276, 44.551299672578516], [27.54178538377626, 44.55130741094487], [27.541785320892263, 44.5513074123628], [27.54178525800826, 44.55130741378078], [27.54178524543146, 44.55130741406437], [27.541785195124262, 44.55130741519874], [27.541720078348508, 44.551309873726154], [27.541609878717566, 44.55131403288556], [27.541575793033502, 44.55131531454351], [27.54157233679211, 44.551315446484246], [27.541556249191533, 44.551316052267964], [27.54155211419925, 44.551316208513924], [27.541550775642143, 44.55131625849884], [27.541541870925464, 44.55131659430346], [27.54178800434501, 44.556075302386596], [27.54209642340973, 44.55608456957338], [27.542097868962912, 44.556084456910405], [27.542307500623437, 44.556068030595945]]]}}, {"type": "Feature", "id": "P4", "properties": {"gid": "687869519", "judet": "IL", "judet_name": "Ialomița", "siruta": 179980, "uat": "Mărculești", "cat_use": "TA", "land_use": "TA", "area_ha": 0.12, "source": "APIA IPA 2025 declared parcels (cerere unică)", "plot_id": "P4"}, "geometry": {"type": "Polygon", "coordinates": [[[27.538972664898157, 44.556175611132], [27.53906501932339, 44.556182791483934], [27.539056130134718, 44.55607888256716], [27.537761102853796, 44.556122879925084], [27.53775963721161, 44.556235641103584], [27.538067550380283, 44.5562343370094], [27.538502731253672, 44.55618650952905], [27.538972664898157, 44.556175611132]]]}}, {"type": "Feature", "id": "P5", "properties": {"gid": "449272856", "judet": "IL", "judet_name": "Ialomița", "siruta": 179980, "uat": "Mărculești", "cat_use": "TA", "land_use": "TA", "area_ha": 1.44, "source": "APIA IPA 2025 declared parcels (cerere unică)", "plot_id": "P5"}, "geometry": {"type": "Polygon", "coordinates": [[[27.53980685268069, 44.55135473533877], [27.539803817099017, 44.5513549167438], [27.53981455806468, 44.551355768493394], [27.539750747776534, 44.551358080316824], [27.539736677170023, 44.551358919461656], [27.53968727051616, 44.551361864549975], [27.539684585989214, 44.55136202495667], [27.539644070477973, 44.55136444022828], [27.539641642082156, 44.55136458496101], [27.539641618265442, 44.55136458729802], [27.539641603212868, 44.55136458853737], [27.539632726057405, 44.55136512161667], [27.539628343877187, 44.55136538238441], [27.539619064659224, 44.551365933523144], [27.539617570394235, 44.55136602120121], [27.539617331830758, 44.55136603557809], [27.53961713099776, 44.551366049104864], [27.539616905011123, 44.5513660631984], [27.539616829550145, 44.551366064898524], [27.539616804436125, 44.551366066364544], [27.53961679189891, 44.5513660675472], [27.539616741908617, 44.55136607587516], [27.539616716754953, 44.55136607644185], [27.539616704178126, 44.55136607672523], [27.539616699107768, 44.55136607593928], [27.539616680282155, 44.55136607726356], [27.539548090912852, 44.55137238556034], [27.5395104177173, 44.551375850311764], [27.539494701941656, 44.551377295424025], [27.539493266292734, 44.551377427690674], [27.53948867594164, 44.5513778497797], [27.539485106158835, 44.55137817778834], [27.53948066758709, 44.55137858600223], [27.53973642550394, 44.55620941242867], [27.54006943674982, 44.556185295850895], [27.540028116101272, 44.55536373499673], [27.53997636211046, 44.554610016132344], [27.53995992440046, 44.55437879151457], [27.53994419155611, 44.553691398006514], [27.53982193043573, 44.551354827300415], [27.539809068420382, 44.5513546032409], [27.53980685268069, 44.55135473533877]]]}}, {"type": "Feature", "id": "P6", "properties": {"gid": "685072460", "judet": "IL", "judet_name": "Ialomița", "siruta": 179980, "uat": "Mărculești", "cat_use": "TA", "land_use": "TA", "area_ha": 5.39, "source": "APIA IPA 2025 declared parcels (cerere unică)", "plot_id": "P6"}, "geometry": {"type": "Polygon", "coordinates": [[[27.53876483159524, 44.55140673864962], [27.53798858540874, 44.5513839503584], [27.537988497252027, 44.5513839496426], [27.537613954571047, 44.55138285047173], [27.53776057180565, 44.55612146513501], [27.53904675432851, 44.55607956861409], [27.538920949927903, 44.55139978092163], [27.53876503250783, 44.55140672692294], [27.53876483159524, 44.55140673864962]]]}}, {"type": "Feature", "id": "P7", "properties": {"gid": "686745395", "judet": "IL", "judet_name": "Ialomița", "siruta": 179980, "uat": "Mărculești", "cat_use": "TA", "land_use": "TA", "area_ha": 3.15, "source": "APIA IPA 2025 declared parcels (cerere unică)", "plot_id": "P7"}, "geometry": {"type": "Polygon", "coordinates": [[[27.546068658037573, 44.555827861043625], [27.546065236452183, 44.555280194267986], [27.54604994738186, 44.55484263962679], [27.546028870884843, 44.55431995647432], [27.54599370229352, 44.553340895239785], [27.545967172451373, 44.552761135729895], [27.545956567578408, 44.55245437541247], [27.545941338517913, 44.55228176133913], [27.545934272162206, 44.55218540348698], [27.545931902440827, 44.55215310528756], [27.545935619641646, 44.55201227384477], [27.54593690854973, 44.551963446858544], [27.54594095567718, 44.55173500728623], [27.545921169680383, 44.55124119283639], [27.54530696437612, 44.55123866149565], [27.545165278404227, 44.55124131967467], [27.545329547145112, 44.55598451122506], [27.54606858291146, 44.55595069690842], [27.546068658037573, 44.555827861043625]]]}}, {"type": "Feature", "id": "P8", "properties": {"gid": "476202023", "judet": "IL", "judet_name": "Ialomița", "siruta": 179980, "uat": "Mărculești", "cat_use": "TA", "land_use": "TA", "area_ha": 7.0, "source": "APIA IPA 2025 declared parcels (cerere unică)", "plot_id": "P8"}, "geometry": {"type": "Polygon", "coordinates": [[[27.544682636702166, 44.55125037163776], [27.543939868515288, 44.55127291628451], [27.543937293215635, 44.5512729554995], [27.543937251712265, 44.55127295643612], [27.543935490566657, 44.55127298717959], [27.543917172826255, 44.55127326554101], [27.543861074719988, 44.55127411744234], [27.543820463784556, 44.55127473684577], [27.54344106280948, 44.551280507482446], [27.543645447355637, 44.55599802707163], [27.544090955647548, 44.55598089784211], [27.544091094003367, 44.555980894719646], [27.54409139587061, 44.555980887906976], [27.544726024511185, 44.55597119962676], [27.544726099977957, 44.55597119792317], [27.545057065660416, 44.555966147759776], [27.545296334550805, 44.55596249193745], [27.54514855859438, 44.55124163417398], [27.545094645463696, 44.551242644404965], [27.54509195363968, 44.55124269617961], [27.544844514447735, 44.551247337435505], [27.544740650631443, 44.55124928613195], [27.544698684839872, 44.55125007057007], [27.544682636702166, 44.55125037163776]]]}}, {"type": "Feature", "id": "P9", "properties": {"gid": "686370567", "judet": "IL", "judet_name": "Ialomița", "siruta": 179980, "uat": "Mărculești", "cat_use": "TA", "land_use": "TA", "area_ha": 1.5, "source": "APIA IPA 2025 declared parcels (cerere unică)", "plot_id": "P9"}, "geometry": {"type": "Polygon", "coordinates": [[[27.53512408258389, 44.55141585166917], [27.535285774220387, 44.556283661403945], [27.53558082796519, 44.556325114513776], [27.535602518771963, 44.55632649006271], [27.535502685457697, 44.55140593652164], [27.535459818037985, 44.55140706277305], [27.535356172371305, 44.55140977298809], [27.53512408258389, 44.55141585166917]]]}}, {"type": "Feature", "id": "P10", "properties": {"gid": "687997948", "judet": "IL", "judet_name": "Ialomița", "siruta": 179980, "uat": "Mărculești", "cat_use": "TA", "land_use": "TA", "area_ha": 8.37, "source": "APIA IPA 2025 declared parcels (cerere unică)", "plot_id": "P10"}, "geometry": {"type": "Polygon", "coordinates": [[[27.535932402960817, 44.55629881471737], [27.535998800801952, 44.55629409104346], [27.536161311381424, 44.55626434416526], [27.536185166514006, 44.55625874017662], [27.5364491633635, 44.556221022925016], [27.53661654932996, 44.55622467427001], [27.53753660028996, 44.5562283272246], [27.5377577055746, 44.55623946599227], [27.537613686537536, 44.551382853300055], [27.53707953469229, 44.551388488482864], [27.5368464673531, 44.55137930351779], [27.536553436693133, 44.55138011844436], [27.53612759899688, 44.55139403904776], [27.535699418476565, 44.55140078204126], [27.535644908543524, 44.55140220983906], [27.53582081646739, 44.556308176279416], [27.535932402960817, 44.55629881471737]]]}}]}