{
  "type": "FeatureCollection",
  "name": "holding-marculesti-2025",
  "features": [
    {
      "type": "Feature",
      "id": "P1",
      "properties": {
        "id": "P1",
        "apiaId": "IL-18402-1",
        "blocFizic": "18402",
        "nrParcela": "1",
        "crop": "gr\u00e2u",
        "cropRo": "Gr\u00e2u comun de toamn\u0103",
        "cropEn": "Winter wheat",
        "cropCode": "101",
        "areaHa": 10.29,
        "landuse": "Teren arabil",
        "landuseCode": "TA",
        "ndvi": 0.38,
        "ndviDate": "2025-08-28",
        "ndviSeries": [
          0.55,
          0.72,
          0.78,
          0.62,
          0.28,
          0.38
        ],
        "n": 140,
        "p2o5": 70,
        "k2o": 50,
        "ph": 6.8,
        "pSoil": 42,
        "kSoil": 180,
        "yieldT": 5.8,
        "color": "#E0B429",
        "declared": "2025-03-18",
        "updated": "2025-05-12",
        "centroid": [
          44.580927,
          27.522383
        ]
      },
      "geometry": {
        "type": "Polygon",
        "coordinates": [
          [
            [
              27.518606,
              44.581237
            ],
            [
              27.521267,
              44.582184
            ],
            [
              27.524786,
              44.581818
            ],
            [
              27.52573,
              44.58087
            ],
            [
              27.524958,
              44.580381
            ],
            [
              27.522039,
              44.57977
            ],
            [
              27.519293,
              44.580228
            ],
            [
              27.518606,
              44.581237
            ]
          ]
        ]
      }
    },
    {
      "type": "Feature",
      "id": "P2",
      "properties": {
        "id": "P2",
        "apiaId": "IL-18402-2",
        "blocFizic": "18402",
        "nrParcela": "2",
        "crop": "porumb",
        "cropRo": "Porumb",
        "cropEn": "Maize",
        "cropCode": "108",
        "areaHa": 14.9,
        "landuse": "Teren arabil",
        "landuseCode": "TA",
        "ndvi": 0.72,
        "ndviDate": "2025-08-28",
        "ndviSeries": [
          0.22,
          0.28,
          0.45,
          0.62,
          0.7,
          0.72
        ],
        "n": 170,
        "p2o5": 80,
        "k2o": 95,
        "ph": 6.5,
        "pSoil": 28,
        "kSoil": 155,
        "yieldT": 8.5,
        "color": "#3FA34A",
        "declared": "2025-03-18",
        "updated": "2025-05-12",
        "centroid": [
          44.577202,
          27.51431
        ]
      },
      "geometry": {
        "type": "Polygon",
        "coordinates": [
          [
            [
              27.510881,
              44.577416
            ],
            [
              27.513113,
              44.578088
            ],
            [
              27.515173,
              44.578822
            ],
            [
              27.51616,
              44.579066
            ],
            [
              27.516975,
              44.578211
            ],
            [
              27.517662,
              44.577324
            ],
            [
              27.516289,
              44.576193
            ],
            [
              27.514143,
              44.575123
            ],
            [
              27.512083,
              44.575368
            ],
            [
              27.510624,
              44.576407
            ],
            [
              27.510881,
              44.577416
            ]
          ]
        ]
      }
    },
    {
      "type": "Feature",
      "id": "P3",
      "properties": {
        "id": "P3",
        "apiaId": "IL-18407-1",
        "blocFizic": "18407",
        "nrParcela": "1",
        "crop": "floarea-soarelui",
        "cropRo": "Floarea-soarelui",
        "cropEn": "Sunflower",
        "cropCode": "107",
        "areaHa": 10.38,
        "landuse": "Teren arabil",
        "landuseCode": "TA",
        "ndvi": 0.47,
        "ndviDate": "2025-08-28",
        "ndviSeries": [
          0.2,
          0.32,
          0.55,
          0.68,
          0.58,
          0.47
        ],
        "n": 80,
        "p2o5": 70,
        "k2o": 90,
        "ph": 7.0,
        "pSoil": 35,
        "kSoil": 210,
        "yieldT": 2.9,
        "color": "#E08A1A",
        "declared": "2025-03-18",
        "updated": "2025-05-12",
        "centroid": [
          44.579028,
          27.520945
        ]
      },
      "geometry": {
        "type": "Polygon",
        "coordinates": [
          [
            [
              27.51749,
              44.578914
            ],
            [
              27.520237,
              44.57977
            ],
            [
              27.523241,
              44.580625
            ],
            [
              27.5247,
              44.58032
            ],
            [
              27.523842,
              44.579219
            ],
            [
              27.521267,
              44.578119
            ],
            [
              27.519035,
              44.577202
            ],
            [
              27.517748,
              44.578058
            ],
            [
              27.51749,
              44.578914
            ]
          ]
        ]
      }
    },
    {
      "type": "Feature",
      "id": "P4",
      "properties": {
        "id": "P4",
        "apiaId": "IL-18411-1",
        "blocFizic": "18411",
        "nrParcela": "1",
        "crop": "porumb",
        "cropRo": "Porumb",
        "cropEn": "Maize",
        "cropCode": "108",
        "areaHa": 4.72,
        "landuse": "Teren arabil",
        "landuseCode": "TA",
        "ndvi": 0.68,
        "ndviDate": "2025-08-28",
        "ndviSeries": [
          0.21,
          0.27,
          0.44,
          0.6,
          0.66,
          0.68
        ],
        "n": 160,
        "p2o5": 75,
        "k2o": 90,
        "ph": 6.4,
        "pSoil": 22,
        "kSoil": 140,
        "yieldT": 8.0,
        "color": "#3FA34A",
        "declared": "2025-03-18",
        "updated": "2025-05-12",
        "centroid": [
          44.573768,
          27.512026
        ]
      },
      "geometry": {
        "type": "Polygon",
        "coordinates": [
          [
            [
              27.510366,
              44.574389
            ],
            [
              27.512426,
              44.57494
            ],
            [
              27.513714,
              44.574206
            ],
            [
              27.513285,
              44.573319
            ],
            [
              27.511911,
              44.572525
            ],
            [
              27.510452,
              44.573228
            ],
            [
              27.510366,
              44.574389
            ]
          ]
        ]
      }
    },
    {
      "type": "Feature",
      "id": "P5",
      "properties": {
        "id": "P5",
        "apiaId": "IL-18411-2",
        "blocFizic": "18411",
        "nrParcela": "2",
        "crop": "rapi\u021b\u0103",
        "cropRo": "Rapi\u021b\u0103",
        "cropEn": "Oilseed rape",
        "cropCode": "104",
        "areaHa": 14.23,
        "landuse": "Teren arabil",
        "landuseCode": "TA",
        "ndvi": 0.41,
        "ndviDate": "2025-08-28",
        "ndviSeries": [
          0.62,
          0.78,
          0.45,
          0.22,
          0.3,
          0.41
        ],
        "n": 160,
        "p2o5": 80,
        "k2o": 100,
        "ph": 6.9,
        "pSoil": 38,
        "kSoil": 195,
        "yieldT": 3.4,
        "color": "#A8C23A",
        "declared": "2025-03-18",
        "updated": "2025-05-12",
        "centroid": [
          44.574045,
          27.517147
        ]
      },
      "geometry": {
        "type": "Polygon",
        "coordinates": [
          [
            [
              27.514572,
              44.574573
            ],
            [
              27.516975,
              44.575612
            ],
            [
              27.518864,
              44.576346
            ],
            [
              27.51955,
              44.57549
            ],
            [
              27.519379,
              44.572922
            ],
            [
              27.518177,
              44.572127
            ],
            [
              27.515259,
              44.572066
            ],
            [
              27.5144,
              44.573228
            ],
            [
              27.514572,
              44.574573
            ]
          ]
        ]
      }
    },
    {
      "type": "Feature",
      "id": "P6",
      "properties": {
        "id": "P6",
        "apiaId": "IL-18407-2",
        "blocFizic": "18407",
        "nrParcela": "2",
        "crop": "paji\u0219te",
        "cropRo": "Paji\u0219te permanent\u0103",
        "cropEn": "Permanent grassland",
        "cropCode": "603",
        "areaHa": 6.62,
        "landuse": "Paji\u0219te permanent\u0103",
        "landuseCode": "PP",
        "ndvi": 0.63,
        "ndviDate": "2025-08-28",
        "ndviSeries": [
          0.52,
          0.64,
          0.7,
          0.58,
          0.48,
          0.63
        ],
        "n": 50,
        "p2o5": 30,
        "k2o": 50,
        "ph": 6.2,
        "pSoil": 18,
        "kSoil": 120,
        "yieldT": 6.0,
        "color": "#5BB78A",
        "declared": "2025-03-18",
        "updated": "2025-05-12",
        "centroid": [
          44.577426,
          27.524292
        ]
      },
      "geometry": {
        "type": "Polygon",
        "coordinates": [
          [
            [
              27.522297,
              44.577997
            ],
            [
              27.524529,
              44.578791
            ],
            [
              27.525816,
              44.578608
            ],
            [
              27.525859,
              44.576713
            ],
            [
              27.524529,
              44.575979
            ],
            [
              27.522726,
              44.576468
            ],
            [
              27.522297,
              44.577997
            ]
          ]
        ]
      }
    },
    {
      "type": "Feature",
      "id": "P7",
      "properties": {
        "id": "P7",
        "apiaId": "IL-18420-1",
        "blocFizic": "18420",
        "nrParcela": "1",
        "crop": "gr\u00e2u",
        "cropRo": "Gr\u00e2u comun de toamn\u0103",
        "cropEn": "Winter wheat",
        "cropCode": "101",
        "areaHa": 4.86,
        "landuse": "Teren arabil",
        "landuseCode": "TA",
        "ndvi": 0.36,
        "ndviDate": "2025-08-28",
        "ndviSeries": [
          0.52,
          0.7,
          0.76,
          0.58,
          0.26,
          0.36
        ],
        "n": 130,
        "p2o5": 65,
        "k2o": 45,
        "ph": 7.1,
        "pSoil": 48,
        "kSoil": 220,
        "yieldT": 5.5,
        "color": "#E0B429",
        "declared": "2025-03-18",
        "updated": "2025-05-12",
        "centroid": [
          44.569963,
          27.513439
        ]
      },
      "geometry": {
        "type": "Polygon",
        "coordinates": [
          [
            [
              27.511654,
              44.570537
            ],
            [
              27.514572,
              44.570843
            ],
            [
              27.516031,
              44.569681
            ],
            [
              27.513456,
              44.568887
            ],
            [
              27.511482,
              44.569865
            ],
            [
              27.511654,
              44.570537
            ]
          ]
        ]
      }
    }
  ]
}